{
  "type": "FeatureCollection",
  "features": [
    {
      "type": "Feature",
      "properties": {
        "norad_id": 34680,
        "name": "COSMOS 2251 DEB",
        "group": "cosmos-2251-debris",
        "lat": 34.86520129410231,
        "lon": -52.01416633266641,
        "alt_km": 688.7998699786103,
        "timestamp": "2025-12-07T16:44:04.307739+00:00",
        "meta_object_name": "COSMOS 2251 DEB",
        "meta_object_id": "1993-036YA",
        "meta_epoch": "2025-12-06T10:37:40.709856",
        "meta_mean_motion": 14.60516338,
        "meta_eccentricity": 0.00069089,
        "meta_inclination": 74.0423,
        "meta_ra_of_asc_node": 141.8787,
        "meta_arg_of_pericenter": 236.4719,
        "meta_mean_anomaly": 154.0251,
        "meta_ephemeris_type": 0,
        "meta_classification_type": "U",
        "meta_norad_cat_id": 34680,
        "meta_element_set_no": 999,
        "meta_rev_at_epoch": 88236,
        "meta_bstar": 0.0020988404,
        "meta_mean_motion_dot": 0.00010176,
        "meta_mean_motion_ddot": 0,
        "tle_line1": "1 34680U 93036YA  25340.44283229  .00010176  00000+0  20988-2 0  9993",
        "tle_line2": "2 34680  74.0423 141.8787 0006908 236.4719 154.0251 14.60516338882366"
      },
      "geometry": {
        "type": "Point",
        "coordinates": [
          -52.01416633266641,
          34.86520129410231
        ]
      }
    },
    {
      "type": "Feature",
      "properties": {
        "norad_id": 34681,
        "name": "COSMOS 2251 DEB",
        "group": "cosmos-2251-debris",
        "lat": -35.40964563906639,
        "lon": -71.35923607829011,
        "alt_km": 610.9973338296904,
        "timestamp": "2025-12-07T16:44:04.307749+00:00",
        "meta_object_name": "COSMOS 2251 DEB",
        "meta_object_id": "1993-036YB",
        "meta_epoch": "2025-12-06T23:24:34.443360",
        "meta_mean_motion": 14.82995627,
        "meta_eccentricity": 0.00256504,
        "meta_inclination": 74.0634,
        "meta_ra_of_asc_node": 301.7869,
        "meta_arg_of_pericenter": 359.5271,
        "meta_mean_anomaly": 71.34,
        "meta_ephemeris_type": 0,
        "meta_classification_type": "U",
        "meta_norad_cat_id": 34681,
        "meta_element_set_no": 999,
        "meta_rev_at_epoch": 89185,
        "meta_bstar": 0.0024913785,
        "meta_mean_motion_dot": 0.00020391,
        "meta_mean_motion_ddot": 0,
        "tle_line1": "1 34681U 93036YB  25340.97539865  .00020391  00000+0  24914-2 0  9995",
        "tle_line2": "2 34681  74.0634 301.7869 0025650 359.5271  71.3400 14.82995627891851"
      },
      "geometry": {
        "type": "Point",
        "coordinates": [
          -71.35923607829011,
          -35.40964563906639
        ]
      }
    },
    {
      "type": "Feature",
      "properties": {
        "norad_id": 34682,
        "name": "COSMOS 2251 DEB",
        "group": "cosmos-2251-debris",
        "lat": 22.13349688018362,
        "lon": -94.09259187854033,
        "alt_km": 691.4904939323942,
        "timestamp": "2025-12-07T16:44:04.307759+00:00",
        "meta_object_name": "COSMOS 2251 DEB",
        "meta_object_id": "1993-036YC",
        "meta_epoch": "2025-12-06T01:20:12.634656",
        "meta_mean_motion": 14.58815913,
        "meta_eccentricity": 0.00186662,
        "meta_inclination": 74.0399,
        "meta_ra_of_asc_node": 95.7163,
        "meta_arg_of_pericenter": 229.0805,
        "meta_mean_anomaly": 310.3215,
        "meta_ephemeris_type": 0,
        "meta_classification_type": "U",
        "meta_norad_cat_id": 34682,
        "meta_element_set_no": 999,
        "meta_rev_at_epoch": 88588,
        "meta_bstar": 0.0014911764,
        "meta_mean_motion_dot": 6.968e-05,
        "meta_mean_motion_ddot": 0,
        "tle_line1": "1 34682U 93036YC  25340.05570179  .00006968  00000+0  14912-2 0  9999",
        "tle_line2": "2 34682  74.0399  95.7163 0018666 229.0805 310.3215 14.58815913885888"
      },
      "geometry": {
        "type": "Point",
        "coordinates": [
          -94.09259187854033,
          22.13349688018362
        ]
      }
    },
    {
      "type": "Feature",
      "properties": {
        "norad_id": 34683,
        "name": "COSMOS 2251 DEB",
        "group": "cosmos-2251-debris",
        "lat": -27.50580186747331,
        "lon": -69.46159009174146,
        "alt_km": 671.4965943168718,
        "timestamp": "2025-12-07T16:44:04.307769+00:00",
        "meta_object_name": "COSMOS 2251 DEB",
        "meta_object_id": "1993-036YD",
        "meta_epoch": "2025-12-06T19:01:34.135680",
        "meta_mean_motion": 14.64356013,
        "meta_eccentricity": 0.00186175,
        "meta_inclination": 74.0295,
        "meta_ra_of_asc_node": 103.7007,
        "meta_arg_of_pericenter": 218.7009,
        "meta_mean_anomaly": 263.542,
        "meta_ephemeris_type": 0,
        "meta_classification_type": "U",
        "meta_norad_cat_id": 34683,
        "meta_element_set_no": 999,
        "meta_rev_at_epoch": 88261,
        "meta_bstar": 0.0025066813,
        "meta_mean_motion_dot": 0.00013271,
        "meta_mean_motion_ddot": 0,
        "tle_line1": "1 34683U 93036YD  25340.79275620  .00013271  00000+0  25067-2 0  9992",
        "tle_line2": "2 34683  74.0295 103.7007 0018617 218.7009 263.5420 14.64356013882611"
      },
      "geometry": {
        "type": "Point",
        "coordinates": [
          -69.46159009174146,
          -27.50580186747331
        ]
      }
    },
    {
      "type": "Feature",
      "properties": {
        "norad_id": 34685,
        "name": "COSMOS 2251 DEB",
        "group": "cosmos-2251-debris",
        "lat": 51.50436117727517,
        "lon": -42.73726444453658,
        "alt_km": 703.7398750204702,
        "timestamp": "2025-12-07T16:44:04.307779+00:00",
        "meta_object_name": "COSMOS 2251 DEB",
        "meta_object_id": "1993-036YF",
        "meta_epoch": "2025-12-06T18:49:31.397088",
        "meta_mean_motion": 14.57425085,
        "meta_eccentricity": 0.00143725,
        "meta_inclination": 74.0284,
        "meta_ra_of_asc_node": 160.1044,
        "meta_arg_of_pericenter": 264.1612,
        "meta_mean_anomaly": 113.6888,
        "meta_ephemeris_type": 0,
        "meta_classification_type": "U",
        "meta_norad_cat_id": 34685,
        "meta_element_set_no": 999,
        "meta_rev_at_epoch": 88445,
        "meta_bstar": 0.0017526589,
        "meta_mean_motion_dot": 7.944e-05,
        "meta_mean_motion_ddot": 0,
        "tle_line1": "1 34685U 93036YF  25340.78439117  .00007944  00000+0  17527-2 0  9998",
        "tle_line2": "2 34685  74.0284 160.1044 0014372 264.1612 113.6888 14.57425085884453"
      },
      "geometry": {
        "type": "Point",
        "coordinates": [
          -42.73726444453658,
          51.50436117727517
        ]
      }
    },
    {
      "type": "Feature",
      "properties": {
        "norad_id": 34689,
        "name": "COSMOS 2251 DEB",
        "group": "cosmos-2251-debris",
        "lat": -26.279848671440643,
        "lon": 60.26440007550835,
        "alt_km": 893.903114255223,
        "timestamp": "2025-12-07T16:44:04.307790+00:00",
        "meta_object_name": "COSMOS 2251 DEB",
        "meta_object_id": "1993-036YK",
        "meta_epoch": "2025-12-01T04:52:05.077056",
        "meta_mean_motion": 14.04150485,
        "meta_eccentricity": 0.0229843,
        "meta_inclination": 74.0888,
        "meta_ra_of_asc_node": 243.4543,
        "meta_arg_of_pericenter": 314.8144,
        "meta_mean_anomaly": 197.2792,
        "meta_ephemeris_type": 0,
        "meta_classification_type": "U",
        "meta_norad_cat_id": 34689,
        "meta_element_set_no": 999,
        "meta_rev_at_epoch": 84179,
        "meta_bstar": 0.0056499,
        "meta_mean_motion_dot": 0.00011323,
        "meta_mean_motion_ddot": 0,
        "tle_line1": "1 34689U 93036YK  25335.20283654  .00011323  00000+0  56499-2 0  9993",
        "tle_line2": "2 34689  74.0888 243.4543 0229843 314.8144 197.2792 14.04150485841793"
      },
      "geometry": {
        "type": "Point",
        "coordinates": [
          60.26440007550835,
          -26.279848671440643
        ]
      }
    },
    {
      "type": "Feature",
      "properties": {
        "norad_id": 34721,
        "name": "COSMOS 2251 DEB",
        "group": "cosmos-2251-debris",
        "lat": 19.148372186935063,
        "lon": -19.253675494718806,
        "alt_km": 944.0940839035884,
        "timestamp": "2025-12-07T16:44:04.307800+00:00",
        "meta_object_name": "COSMOS 2251 DEB",
        "meta_object_id": "1993-036YP",
        "meta_epoch": "2025-12-05T23:31:26.699232",
        "meta_mean_motion": 13.96799465,
        "meta_eccentricity": 0.02239253,
        "meta_inclination": 73.9235,
        "meta_ra_of_asc_node": 337.977,
        "meta_arg_of_pericenter": 278.1349,
        "meta_mean_anomaly": 108.3025,
        "meta_ephemeris_type": 0,
        "meta_classification_type": "U",
        "meta_norad_cat_id": 34721,
        "meta_element_set_no": 999,
        "meta_rev_at_epoch": 85055,
        "meta_bstar": 0.0028739518,
        "meta_mean_motion_dot": 4.911e-05,
        "meta_mean_motion_ddot": 0,
        "tle_line1": "1 34721U 93036YP  25339.98017013  .00004911  00000+0  28740-2 0  9996",
        "tle_line2": "2 34721  73.9235 337.9770 0223925 278.1349 108.3025 13.96799465850552"
      },
      "geometry": {
        "type": "Point",
        "coordinates": [
          -19.253675494718806,
          19.148372186935063
        ]
      }
    }
  ]
}